CTC1_L_00075001-01
1 49817U 26048NQ  26070.40832176  .00000000  00000+0  00000-0 0  9994
2 49817  70.0000   0.0000 0000000   0.0000   0.0000 14.89338871    11
CTC1_L_00075001-02
1 49818U 26895MI  26070.40832176  .00000000  00000+0  00000-0 0  9995
2 49818  70.0000   0.0000 0000000   0.0000  90.0000 14.89338871    11
CTC1_L_00075001-03
1 49819U 25835CV  26070.40832176  .00000000  00000+0  00000-0 0  9999
2 49819  70.0000   0.0000 0000000   0.0000 180.0000 14.89338871    12
CTC1_L_00075001-04
1 49820U 23838PB  26070.40832176  .00000000  00000+0  00000-0 0  9992
2 49820  70.0000   0.0000 0000000   0.0000 270.0000 14.89338871    14
CTC1_L_00075002-01
1 49821U 23865UF  26070.40832176  .00000000  00000+0  00000-0 0  9993
2 49821  70.0000  12.0000 0000000   0.0000  12.0000 14.89338871    12
CTC1_L_00075002-02
1 49822U 26669DT  26070.40832176  .00000000  00000+0  00000-0 0  9999
2 49822  70.0000  12.0000 0000000   0.0000 102.0000 14.89338871    13
CTC1_L_00075002-03
1 49823U 22685JQ  26070.40832176  .00000000  00000+0  00000-0 0  9994
2 49823  70.0000  12.0000 0000000   0.0000 192.0000 14.89338871    13
CTC1_L_00075002-04
1 49824U 25446AX  26070.40832176  .00000000  00000+0  00000-0 0  9993
2 49824  70.0000  12.0000 0000000   0.0000 282.0000 14.89338871    14
CTC1_L_00075003-01
1 49825U 23066PR  26070.40832176  .00000000  00000+0  00000-0 0  9990
2 49825  70.0000  24.0000 0000000   0.0000  24.0000 14.89338871    12
CTC1_L_00075003-02
1 49826U 23611DU  26070.40832176  .00000000  00000+0  00000-0 0  9997
2 49826  70.0000  24.0000 0000000   0.0000 114.0000 14.89338871    13
CTC1_L_00075003-03
1 49827U 22965HW  26070.40832176  .00000000  00000+0  00000-0 0  9999
2 49827  70.0000  24.0000 0000000   0.0000 204.0000 14.89338871    14
CTC1_L_00075003-04
1 49828U 26915HP  26070.40832176  .00000000  00000+0  00000-0 0  9999
2 49828  70.0000  24.0000 0000000   0.0000 294.0000 14.89338871    14
CTC1_L_00075004-01
1 49829U 23901IZ  26070.40832176  .00000000  00000+0  00000-0 0  9992
2 49829  70.0000  36.0000 0000000   0.0000  36.0000 14.89338871    12
CTC1_L_00075004-02
1 49830U 25937SS  26070.40832176  .00000000  00000+0  00000-0 0  9995
2 49830  70.0000  36.0000 0000000   0.0000 126.0000 14.89338871    14
CTC1_L_00075004-03
1 49831U 25836DI  26070.40832176  .00000000  00000+0  00000-0 0  9994
2 49831  70.0000  36.0000 0000000   0.0000 216.0000 14.89338871    15
CTC1_L_00075004-04
1 49832U 26646TK  26070.40832176  .00000000  00000+0  00000-0 0  9995
2 49832  70.0000  36.0000 0000000   0.0000 306.0000 14.89338871    16
CTC1_L_00075005-01
1 49833U 24805WX  26070.40832176  .00000000  00000+0  00000-0 0  9991
2 49833  70.0000  48.0000 0000000   0.0000  48.0000 14.89338871    13
CTC1_L_00075005-02
1 49834U 22947TH  26070.40832176  .00000000  00000+0  00000-0 0  9997
2 49834  70.0000  48.0000 0000000   0.0000 138.0000 14.89338871    14
CTC1_L_00075005-03
1 49835U 22062WV  26070.40832176  .00000000  00000+0  00000-0 0  9996
2 49835  70.0000  48.0000 0000000   0.0000 228.0000 14.89338871    15
CTC1_L_00075005-04
1 49836U 26826LH  26070.40832176  .00000000  00000+0  00000-0 0  9999
2 49836  70.0000  48.0000 0000000   0.0000 318.0000 14.89338871    16
CTC1_L_00075006-01
1 49837U 23632WX  26070.40832176  .00000000  00000+0  00000-0 0  9992
2 49837  70.0000  60.0000 0000000   0.0000  60.0000 14.89338871    15
CTC1_L_00075006-02
1 49838U 22971EL  26070.40832176  .00000000  00000+0  00000-0 0  9998
2 49838  70.0000  60.0000 0000000   0.0000 150.0000 14.89338871    16
CTC1_L_00075006-03
1 49839U 22812CE  26070.40832176  .00000000  00000+0  00000-0 0  9993
2 49839  70.0000  60.0000 0000000   0.0000 240.0000 14.89338871    17
CTC1_L_00075006-04
1 49840U 23968HH  26070.40832176  .00000000  00000+0  00000-0 0  9998
2 49840  70.0000  60.0000 0000000   0.0000 330.0000 14.89338871    19
CTC1_L_00075007-01
1 49841U 22308XY  26070.40832176  .00000000  00000+0  00000-0 0  9996
2 49841  70.0000  72.0000 0000000   0.0000  72.0000 14.89338871    16
CTC1_L_00075007-02
1 49842U 24044EC  26070.40832176  .00000000  00000+0  00000-0 0  9996
2 49842  70.0000  72.0000 0000000   0.0000 162.0000 14.89338871    17
CTC1_L_00075007-03
1 49843U 24662IT  26070.40832176  .00000000  00000+0  00000-0 0  9993
2 49843  70.0000  72.0000 0000000   0.0000 252.0000 14.89338871    18
CTC1_L_00075007-04
1 49844U 22937LQ  26070.40832176  .00000000  00000+0  00000-0 0  9997
2 49844  70.0000  72.0000 0000000   0.0000 342.0000 14.89338871    19
CTC1_L_00075008-01
1 49845U 22595TF  26070.40832176  .00000000  00000+0  00000-0 0  9998
2 49845  70.0000  84.0000 0000000   0.0000  84.0000 14.89338871    16
CTC1_L_00075008-02
1 49846U 23642ZE  26070.40832176  .00000000  00000+0  00000-0 0  9993
2 49846  70.0000  84.0000 0000000   0.0000 174.0000 14.89338871    17
CTC1_L_00075008-03
1 49847U 22435KT  26070.40832176  .00000000  00000+0  00000-0 0  9993
2 49847  70.0000  84.0000 0000000   0.0000 264.0000 14.89338871    18
CTC1_L_00075008-04
1 49848U 23483MW  26070.40832176  .00000000  00000+0  00000-0 0  9998
2 49848  70.0000  84.0000 0000000   0.0000 354.0000 14.89338871    19
CTC1_L_00075009-01
1 49849U 25636SC  26070.40832176  .00000000  00000+0  00000-0 0  9991
2 49849  70.0000  96.0000 0000000   0.0000  96.0000 14.89338871    16
CTC1_L_00075009-02
1 49850U 26429EO  26070.40832176  .00000000  00000+0  00000-0 0  9994
2 49850  70.0000  96.0000 0000000   0.0000 186.0000 14.89338871    18
CTC1_L_00075009-03
1 49851U 26917DY  26070.40832176  .00000000  00000+0  00000-0 0  9997
2 49851  70.0000  96.0000 0000000   0.0000 276.0000 14.89338871    19
CTC1_L_00075009-04
1 49852U 22785O   26070.40832176  .00000000  00000+0  00000-0 0  9997
2 49852  70.0000  96.0000 0000000   0.0000   6.0000 14.89338871    11
CTC1_L_00075010-01
1 49853U 24160AH  26070.40832176  .00000000  00000+0  00000-0 0  9997
2 49853  70.0000 108.0000 0000000   0.0000 108.0000 14.89338871    19
CTC1_L_00075010-02
1 49854U 26429LL  26070.40832176  .00000000  00000+0  00000-0 0  9998
2 49854  70.0000 108.0000 0000000   0.0000 198.0000 14.89338871    19
CTC1_L_00075010-03
1 49855U 23224CN  26070.40832176  .00000000  00000+0  00000-0 0  9999
2 49855  70.0000 108.0000 0000000   0.0000 288.0000 14.89338871    10
CTC1_L_00075010-04
1 49856U 23273SC  26070.40832176  .00000000  00000+0  00000-0 0  9994
2 49856  70.0000 108.0000 0000000   0.0000  18.0000 14.89338871    12
CTC1_L_00075011-01
1 49857U 26907JQ  26070.40832176  .00000000  00000+0  00000-0 0  9992
2 49857  70.0000 120.0000 0000000   0.0000 120.0000 14.89338871    11
CTC1_L_00075011-02
1 49858U 24454AT  26070.40832176  .00000000  00000+0  00000-0 0  9998
2 49858  70.0000 120.0000 0000000   0.0000 210.0000 14.89338871    12
CTC1_L_00075011-03
1 49859U 26100BQ  26070.40832176  .00000000  00000+0  00000-0 0  9999
2 49859  70.0000 120.0000 0000000   0.0000 300.0000 14.89338871    13
CTC1_L_00075011-04
1 49860U 25844US  26070.40832176  .00000000  00000+0  00000-0 0  9995
2 49860  70.0000 120.0000 0000000   0.0000  30.0000 14.89338871    15
CTC1_L_00075012-01
1 49861U 26458NC  26070.40832176  .00000000  00000+0  00000-0 0  9998
2 49861  70.0000 132.0000 0000000   0.0000 132.0000 14.89338871    12
CTC1_L_00075012-02
1 49862U 24656FS  26070.40832176  .00000000  00000+0  00000-0 0  9997
2 49862  70.0000 132.0000 0000000   0.0000 222.0000 14.89338871    13
CTC1_L_00075012-03
1 49863U 24839RE  26070.40832176  .00000000  00000+0  00000-0 0  9991
2 49863  70.0000 132.0000 0000000   0.0000 312.0000 14.89338871    14
CTC1_L_00075012-04
1 49864U 25241BJ  26070.40832176  .00000000  00000+0  00000-0 0  9990
2 49864  70.0000 132.0000 0000000   0.0000  42.0000 14.89338871    15
CTC1_L_00075013-01
1 49865U 22083XB  26070.40832176  .00000000  00000+0  00000-0 0  9992
2 49865  70.0000 144.0000 0000000   0.0000 144.0000 14.89338871    12
CTC1_L_00075013-02
1 49866U 25874ZL  26070.40832176  .00000000  00000+0  00000-0 0  9994
2 49866  70.0000 144.0000 0000000   0.0000 234.0000 14.89338871    13
CTC1_L_00075013-03
1 49867U 24766FU  26070.40832176  .00000000  00000+0  00000-0 0  9994
2 49867  70.0000 144.0000 0000000   0.0000 324.0000 14.89338871    14
CTC1_L_00075013-04
1 49868U 23108EV  26070.40832176  .00000000  00000+0  00000-0 0  9994
2 49868  70.0000 144.0000 0000000   0.0000  54.0000 14.89338871    15
CTC1_L_00075014-01
1 49869U 25542LL  26070.40832176  .00000000  00000+0  00000-0 0  9999
2 49869  70.0000 156.0000 0000000   0.0000 156.0000 14.89338871    12
CTC1_L_00075014-02
1 49870U 26901SK  26070.40832176  .00000000  00000+0  00000-0 0  9991
2 49870  70.0000 156.0000 0000000   0.0000 246.0000 14.89338871    14
CTC1_L_00075014-03
1 49871U 22629DB  26070.40832176  .00000000  00000+0  00000-0 0  9995
2 49871  70.0000 156.0000 0000000   0.0000 336.0000 14.89338871    15
CTC1_L_00075014-04
1 49872U 26645VG  26070.40832176  .00000000  00000+0  00000-0 0  9998
2 49872  70.0000 156.0000 0000000   0.0000  66.0000 14.89338871    16
CTC1_L_00075015-01
1 49873U 24058RZ  26070.40832176  .00000000  00000+0  00000-0 0  9995
2 49873  70.0000 168.0000 0000000   0.0000 168.0000 14.89338871    13
CTC1_L_00075015-02
1 49874U 22304WF  26070.40832176  .00000000  00000+0  00000-0 0  9998
2 49874  70.0000 168.0000 0000000   0.0000 258.0000 14.89338871    14
CTC1_L_00075015-03
1 49875U 22543DW  26070.40832176  .00000000  00000+0  00000-0 0  9994
2 49875  70.0000 168.0000 0000000   0.0000 348.0000 14.89338871    15
CTC1_L_00075015-04
1 49876U 25267QT  26070.40832176  .00000000  00000+0  00000-0 0  9991
2 49876  70.0000 168.0000 0000000   0.0000  78.0000 14.89338871    16
CTC1_L_00075016-01
1 49877U 22557YD  26070.40832176  .00000000  00000+0  00000-0 0  9991
2 49877  70.0000 180.0000 0000000   0.0000 180.0000 14.89338871    15
CTC1_L_00075016-02
1 49878U 25634JZ  26070.40832176  .00000000  00000+0  00000-0 0  9991
2 49878  70.0000 180.0000 0000000   0.0000 270.0000 14.89338871    16
